OBJECT_NAME,OBJECT_ID,EPOCH,MEAN_MOTION,ECCENTRICITY,INCLINATION,RA_OF_ASC_NODE,ARG_OF_PERICENTER,MEAN_ANOMALY,EPHEMERIS_TYPE,CLASSIFICATION_TYPE,NORAD_CAT_ID,ELEMENT_SET_NO,REV_AT_EPOCH,BSTAR,MEAN_MOTION_DOT,MEAN_MOTION_DDOT
STARLINK-38067,2026-150J,2026-07-17T16:42:00.023040,15.75286256,.000129,97.2838,37.1626,105.5871,254.5537,0,U,69747,999,371,.12517E-2,.191607E-2,0
STARLINK-37988,2026-150K,2026-07-16T23:53:10.718016,15.75263957,.0000745,97.2835,36.4315,77.1053,283.0295,0,U,69748,999,360,.12205446E-2,.186549E-2,0
STARLINK-37987,2026-150L,2026-07-17T11:58:55.310592,15.75254422,.0001573,97.2843,36.9718,104.9703,255.1737,0,U,69749,999,368,.11847E-2,.180865E-2,0
STARLINK-38037,2026-150M,2026-07-17T02:21:13.127904,15.80819947,.0001389,97.2835,36.5978,65.2480,294.8932,0,U,69750,999,362,.10781E-2,.211488E-2,0
STARLINK-38049,2026-150N,2026-07-17T12:57:49.877568,15.80940262,.0001346,97.2845,37.0688,104.0296,256.1122,0,U,69751,999,369,.14753E-2,.293836E-2,0
STARLINK-38029,2026-150P,2026-07-17T16:00:03.000096,15.75271264,.0001086,97.2848,37.1882,100.7973,222.2350,0,U,69752,999,369,-.14225E-2,-.207952E-2,0
STARLINK-37965,2026-150Q,2026-07-17T11:44:39.458112,15.75316047,.0001625,97.2842,36.9844,120.0515,240.0911,0,U,69753,999,368,.10796E-2,.164945E-2,0
STARLINK-38048,2026-150R,2026-07-17T12:49:00.954048,15.80862549,.0000872,97.2827,37.0770,105.1327,255.0038,0,U,69754,999,369,.75605E-3,.147462E-2,0
STARLINK-38006,2026-150S,2026-07-17T16:00:03.000096,15.75269116,.000079,97.2846,37.1950,113.2784,223.7511,0,U,69755,999,369,-.13671E-2,-.200019E-2,0
STARLINK-38036,2026-150T,2026-07-17T16:00:03.000096,15.75259202,.00009,97.2853,37.2118,91.8089,283.2154,0,U,69756,999,369,-.12154E-2,-.178211E-2,0
STARLINK-38058,2026-150U,2026-07-17T06:37:57.256032,15.81830464,.0004087,97.2833,36.8174,12.3916,347.7453,0,U,69757,999,365,.22893E-2,.485736E-2,0
STARLINK-38066,2026-150V,2026-07-17T12:42:32.383008,15.80539037,.0002245,97.2819,37.0863,92.5096,267.6429,0,U,69758,999,369,.14431E-2,.281833E-2,0
STARLINK-38035,2026-150W,2026-07-16T12:23:54.049920,15.80943955,.0001208,97.2826,36.0135,127.8766,232.2612,0,U,69759,999,353,.16439E-2,.328828E-2,0
STARLINK-38056,2026-150X,2026-07-17T12:37:22.905984,15.80878793,.0001248,97.2834,37.0896,110.0556,250.0847,0,U,69760,999,369,.87587E-3,.171456E-2,0
STARLINK-38069,2026-150Y,2026-07-17T12:32:24.609984,15.80620766,.0000405,97.2835,37.0938,355.9604,4.1661,0,U,69761,999,369,-.69577E-3,-.130266E-2,0
STARLINK-38019,2026-150Z,2026-07-17T16:04:54.136128,15.75199185,.0000714,97.2845,37.1985,72.5257,287.6087,0,U,69762,999,371,.40875E-3,.61299E-3,0
KUIPER-00258,2026-151A,2026-07-17T08:00:04.000032,15.34746871,.0011042,51.8673,170.2525,174.6236,92.7147,0,U,69763,999,270,.12178E-2,.41567E-3,0
KUIPER-00526,2026-151B,2026-07-17T11:05:40.705152,15.37352408,.0005842,51.8774,169.4309,149.0343,211.0989,0,U,69764,999,236,.33725E-3,.12172E-3,0
KUIPER-00558,2026-151C,2026-07-17T16:00:03.000096,15.33530222,.0008461,51.8775,168.5226,158.9501,213.0093,0,U,69765,999,300,.17159E-3,.5276E-4,0
KUIPER-00569,2026-151D,2026-07-17T09:29:36.561120,15.37507094,.0004715,51.8786,169.7350,137.9474,222.1876,0,U,69766,999,235,.37238E-3,.13551E-3,0
KUIPER-00589,2026-151E,2026-07-17T11:04:26.611968,15.37378719,.0005366,51.8764,169.4246,150.2740,209.8552,0,U,69767,999,236,.33874E-3,.12237E-3,0
KUIPER-00598,2026-151F,2026-07-17T16:00:03.000096,15.34427774,.0008944,51.8641,168.6430,173.0681,136.3413,0,U,69768,999,293,-.20544E-3,-.734E-4,0
KUIPER-00604,2026-151G,2026-07-17T12:26:10.078080,15.38274101,.0002578,51.8807,169.0559,111.5244,248.6018,0,U,69769,999,237,.34557E-3,.12867E-3,0
KUIPER-00609,2026-151H,2026-07-17T15:27:18.806688,15.38674387,.0001419,51.8808,168.3993,55.6122,304.4999,0,U,69770,999,239,.38144E-3,.14438E-3,0
KUIPER-00611,2026-151J,2026-07-17T15:30:12.756672,15.38483555,.0001678,51.8808,168.4089,105.4617,254.6555,0,U,69771,999,239,.22703E-3,.8372E-4,0
KUIPER-00612,2026-151K,2026-07-17T12:30:24.030144,15.37974771,.0003699,51.8800,169.0754,125.0255,235.1079,0,U,69772,999,237,.30325E-3,.11129E-3,0
KUIPER-00614,2026-151L,2026-07-17T12:27:23.868000,15.38182262,.0002616,51.8811,169.0592,130.9439,229.1775,0,U,69773,999,237,.30024E-3,.11091E-3,0
KUIPER-00615,2026-151M,2026-07-17T09:33:20.820096,15.37259931,.000607,51.8777,169.7517,155.2022,204.9258,0,U,69774,999,235,.32482E-3,.11673E-3,0
KUIPER-00616,2026-151N,2026-07-17T12:24:54.878112,15.38429707,.0003077,51.8790,169.0525,128.6009,231.5254,0,U,69775,999,237,.28498E-3,.10593E-3,0
KUIPER-00617,2026-151P,2026-07-17T15:39:27.982080,15.37820524,.000391,51.8803,168.4551,142.6297,217.4962,0,U,69776,999,239,.34463E-3,.1264E-3,0
