STARLINK-38067          
1 69747U 26150J   26198.69583360  .00191607  00000+0  12517-2 0  9994
2 69747  97.2838  37.1626 0001290 105.5871 254.5537 15.75286256  3715
STARLINK-37988          
1 69748U 26150K   26197.99526294  .00186549  00000+0  12205-2 0  9993
2 69748  97.2835  36.4315 0000745  77.1053 283.0295 15.75263957  3609
STARLINK-37987          
1 69749U 26150L   26198.49925128  .00180865  00000+0  11847-2 0  9995
2 69749  97.2843  36.9718 0001573 104.9703 255.1737 15.75254422  3688
STARLINK-38037          
1 69750U 26150M   26198.09806861  .00211488  00000+0  10781-2 0  9997
2 69750  97.2835  36.5978 0001389  65.2480 294.8932 15.80819947  3627
STARLINK-38049          
1 69751U 26150N   26198.54016062  .00293836  00000+0  14753-2 0  9994
2 69751  97.2845  37.0688 0001346 104.0296 256.1122 15.80940262  3697
STARLINK-38029          
1 69752U 26150P   26198.66670139 -.00207952  00000+0 -14225-2 0  9999
2 69752  97.2848  37.1882 0001086 100.7973 222.2350 15.75271264  3694
STARLINK-37965          
1 69753U 26150Q   26198.48934558  .00164945  00000+0  10796-2 0  9999
2 69753  97.2842  36.9844 0001625 120.0515 240.0911 15.75316047  3689
STARLINK-38048          
1 69754U 26150R   26198.53403882  .00147462  00000+0  75605-3 0  9993
2 69754  97.2827  37.0770 0000872 105.1327 255.0038 15.80862549  3697
STARLINK-38006          
1 69755U 26150S   26198.66670139 -.00200019  00000+0 -13671-2 0  9993
2 69755  97.2846  37.1950 0000790 113.2784 223.7511 15.75269116  3699
STARLINK-38036          
1 69756U 26150T   26198.66670139 -.00178211  00000+0 -12154-2 0  9997
2 69756  97.2853  37.2118 0000900  91.8089 283.2154 15.75259202  3696
STARLINK-38058          
1 69757U 26150U   26198.27635713  .00485736  00000+0  22893-2 0  9996
2 69757  97.2833  36.8174 0004087  12.3916 347.7453 15.81830464  3655
STARLINK-38066          
1 69758U 26150V   26198.52954147  .00281833  00000+0  14431-2 0  9991
2 69758  97.2819  37.0863 0002245  92.5096 267.6429 15.80539037  3699
STARLINK-38035          
1 69759U 26150W   26197.51659780  .00328828  00000+0  16439-2 0  9991
2 69759  97.2826  36.0135 0001208 127.8766 232.2612 15.80943955  3536
STARLINK-38056          
1 69760U 26150X   26198.52595956  .00171456  00000+0  87587-3 0  9995
2 69760  97.2834  37.0896 0001248 110.0556 250.0847 15.80878793  3699
STARLINK-38069          
1 69761U 26150Y   26198.52250706 -.00130266  00000+0 -69577-3 0  9992
2 69761  97.2835  37.0938 0000405 355.9604   4.1661 15.80620766  3693
STARLINK-38019          
1 69762U 26150Z   26198.67007102  .00061299  00000+0  40875-3 0  9996
2 69762  97.2845  37.1985 0000714  72.5257 287.6087 15.75199185  3710
KUIPER-00258            
1 69763U 26151A   26198.33337963  .00041567  00000+0  12178-2 0  9992
2 69763  51.8673 170.2525 0011042 174.6236  92.7147 15.34746871  2707
KUIPER-00526            
1 69764U 26151B   26198.46227668  .00012172  00000+0  33725-3 0  9999
2 69764  51.8774 169.4309 0005842 149.0343 211.0989 15.37352408  2360
KUIPER-00558            
1 69765U 26151C   26198.66670139  .00005276  00000+0  17159-3 0  9997
2 69765  51.8775 168.5226 0008461 158.9501 213.0093 15.33530222  3003
KUIPER-00569            
1 69766U 26151D   26198.39556205  .00013551  00000+0  37238-3 0  9990
2 69766  51.8786 169.7350 0004715 137.9474 222.1876 15.37507094  2353
KUIPER-00589            
1 69767U 26151E   26198.46141912  .00012237  00000+0  33874-3 0  9996
2 69767  51.8764 169.4246 0005366 150.2740 209.8552 15.37378719  2362
KUIPER-00598            
1 69768U 26151F   26198.66670139 -.00007340  00000+0 -20544-3 0  9998
2 69768  51.8641 168.6430 0008944 173.0681 136.3413 15.34427774  2931
KUIPER-00604            
1 69769U 26151G   26198.51817220  .00012867  00000+0  34557-3 0  9994
2 69769  51.8807 169.0559 0002578 111.5244 248.6018 15.38274101  2376
KUIPER-00609            
1 69770U 26151H   26198.64396767  .00014438  00000+0  38144-3 0  9990
2 69770  51.8808 168.3993 0001419  55.6122 304.4999 15.38674387  2390
KUIPER-00611            
1 69771U 26151J   26198.64598098  .00008372  00000+0  22703-3 0  9996
2 69771  51.8808 168.4089 0001678 105.4617 254.6555 15.38483555  2397
KUIPER-00612            
1 69772U 26151K   26198.52111146  .00011129  00000+0  30325-3 0  9992
2 69772  51.8800 169.0754 0003699 125.0255 235.1079 15.37974771  2374
KUIPER-00614            
1 69773U 26151L   26198.51902625  .00011091  00000+0  30024-3 0  9996
2 69773  51.8811 169.0592 0002616 130.9439 229.1775 15.38182262  2377
KUIPER-00615            
1 69774U 26151M   26198.39815764  .00011673  00000+0  32482-3 0  9996
2 69774  51.8777 169.7517 0006070 155.2022 204.9258 15.37259931  2351
KUIPER-00616            
1 69775U 26151N   26198.51730183  .00010593  00000+0  28498-3 0  9994
2 69775  51.8790 169.0525 0003077 128.6009 231.5254 15.38429707  2377
KUIPER-00617            
1 69776U 26151P   26198.65240720  .00012640  00000+0  34463-3 0  9997
2 69776  51.8803 168.4551 0003910 142.6297 217.4962 15.37820524  2398
